[{"OBJECT_NAME":"NUSAT-49 (KLARA DAN VON NEUMANN)","OBJECT_ID":"2024-149AJ","EPOCH":"2026-03-09T19:09:16.004160","MEAN_MOTION":15.30828857,"ECCENTRICITY":0.00011321,"INCLINATION":97.3807,"RA_OF_ASC_NODE":150.738,"ARG_OF_PERICENTER":286.7761,"MEAN_ANOMALY":73.3356,"EPHEMERIS_TYPE":0,"CLASSIFICATION_TYPE":"U","NORAD_CAT_ID":60500,"ELEMENT_SET_NO":999,"REV_AT_EPOCH":8693,"BSTAR":0.00043568345,"MEAN_MOTION_DOT":0.00012912,"MEAN_MOTION_DDOT":0},{"OBJECT_NAME":"STARLINK-35108","OBJECT_ID":"2025-216E","EPOCH":"2026-03-09T21:28:32.742624","MEAN_MOTION":15.30211752,"ECCENTRICITY":0.00014695,"INCLINATION":53.158,"RA_OF_ASC_NODE":332.041,"ARG_OF_PERICENTER":114.6975,"MEAN_ANOMALY":245.4178,"EPHEMERIS_TYPE":0,"CLASSIFICATION_TYPE":"U","NORAD_CAT_ID":65738,"ELEMENT_SET_NO":999,"REV_AT_EPOCH":2662,"BSTAR":0.00083434508,"MEAN_MOTION_DOT":0.00024442,"MEAN_MOTION_DDOT":0}]
